ONEWEB-0012             
1 44057U 19010A   23292.40352919  .00000081  00000+0  17789-3 0  9995
2 44057  87.9053  62.2108 0002238  70.6645 289.4728 13.16594290223698
ONEWEB-0010             
1 44058U 19010B   23292.42886280  .00000132  00000+0  31181-3 0  9990
2 44058  87.9045  62.1891 0001342  72.2444 287.8833 13.16595732223745
ONEWEB-0008             
1 44059U 19010C   23292.37818981 -.00000026  00000+0 -10076-3 0  9992
2 44059  87.9053  62.1946 0001788 104.6315 255.5014 13.16595769223852
ONEWEB-0007             
1 44060U 19010D   23292.47824473 -.00000106  00000+0 -31697-3 0  9999
2 44060  87.8948  92.6467 0001882  77.7641 282.3700 13.15547855223615
ONEWEB-0006             
1 44061U 19010E   23292.69372087 -.00000021  00000+0 -88630-4 0  9999
2 44061  87.8945  92.6031 0001574  79.1398 280.9909 13.15546350223695
ONEWEB-0011             
1 44062U 19010F   23292.37708246 -.00004936  00000+0 -13171-1 0  9999
2 44062  87.8930  92.6681 0002675  97.4763 262.6671 13.15458989223641
ONEWEB-0013             
1 45131U 20008A   23292.41710233  .00000626  00000+0  17827-2 0  9993
2 45131  87.9146 247.9528 0002910  79.8832 280.2623 13.09345782178895
ONEWEB-0017             
1 45132U 20008B   23292.80915479  .00000513  00000+0  14342-2 0  9990
2 45132  87.8900 229.1699 0001805  70.1405 289.9916 13.10375480181509
